{
    "links": {
        "self": "http://www.neowsapp.com/rest/v1/neo/54053945?api_key=iIulBulltgU6a56xZRHN4H3l9WmuAYTsLGpBGhQ2"
    },
    "id": "54053945",
    "neo_reference_id": "54053945",
    "name": "(2020 RQ4)",
    "designation": "2020 RQ4",
    "nasa_jpl_url": "http://ssd.jpl.nasa.gov/sbdb.cgi?sstr=54053945",
    "absolute_magnitude_h": 26.355,
    "estimated_diameter": {
        "kilometers": {
            "estimated_diameter_min": 0.0142414752,
            "estimated_diameter_max": 0.0318449066
        },
        "meters": {
            "estimated_diameter_min": 14.2414751567,
            "estimated_diameter_max": 31.8449065503
        },
        "miles": {
            "estimated_diameter_min": 0.0088492397,
            "estimated_diameter_max": 0.0197875014
        },
        "feet": {
            "estimated_diameter_min": 46.7240013531,
            "estimated_diameter_max": 104.4780432064
        }
    },
    "is_potentially_hazardous_asteroid": false,
    "close_approach_data": [
        {
            "close_approach_date": "2020-08-21",
            "close_approach_date_full": "2020-Aug-21 16:37",
            "epoch_date_close_approach": 1598027820000,
            "relative_velocity": {
                "kilometers_per_second": "6.8138178659",
                "kilometers_per_hour": "24529.7443171028",
                "miles_per_hour": "15241.8291841465"
            },
            "miss_distance": {
                "astronomical": "0.0295930683",
                "lunar": "11.5117035687",
                "kilometers": "4427059.984444521",
                "miles": "2750847.5158395498"
            },
            "orbiting_body": "Earth"
        },
        {
            "close_approach_date": "2020-11-17",
            "close_approach_date_full": "2020-Nov-17 00:54",
            "epoch_date_close_approach": 1605574440000,
            "relative_velocity": {
                "kilometers_per_second": "8.6308640881",
                "kilometers_per_hour": "31071.110717216",
                "miles_per_hour": "19306.3798787057"
            },
            "miss_distance": {
                "astronomical": "0.0669446377",
                "lunar": "26.0414640653",
                "kilometers": "10014775.207841699",
                "miles": "6222892.7547814862"
            },
            "orbiting_body": "Mars"
        }
    ],
    "orbital_data": {
        "orbit_id": "1",
        "orbit_determination_date": "2020-09-14 03:42:03",
        "first_observation_date": "2020-09-10",
        "last_observation_date": "2020-09-14",
        "data_arc_in_days": 4,
        "observations_used": 21,
        "orbit_uncertainty": "8",
        "minimum_orbit_intersection": ".0186639",
        "jupiter_tisserand_invariant": "4.161",
        "epoch_osculation": "2459104.5",
        "eccentricity": ".3945937317518238",
        "semi_major_axis": "1.666937750557529",
        "inclination": "2.146931706490128",
        "ascending_node_longitude": "347.7469608989623",
        "orbital_period": "786.0994635281885",
        "perihelion_distance": "1.009174562967043",
        "perihelion_argument": "317.3132806568237",
        "aphelion_distance": "2.324700938148015",
        "perihelion_time": "2459063.069305195770",
        "mean_anomaly": "18.97348977008679",
        "mean_motion": ".4579573154575635",
        "equinox": "J2000",
        "orbit_class": {
            "orbit_class_type": "APO",
            "orbit_class_description": "Near-Earth asteroid orbits which cross the Earth’s orbit similar to that of 1862 Apollo",
            "orbit_class_range": "a (semi-major axis) > 1.0 AU; q (perihelion) < 1.017 AU"
        }
    },
    "is_sentry_object": false
}